CCSDS_OMM_VERS = 2.0
CREATION_DATE  = 
ORIGINATOR     = 

OBJECT_NAME    = UNKNOWN
OBJECT_ID      = 
CENTER_NAME    = EARTH
REF_FRAME      = TEME
TIME_SYSTEM    = UTC
MEAN_ELEMENT_THEORY = SGP/SGP4

EPOCH          = 2025-12-28T07:07:52.914144
MEAN_MOTION    = 14.64552886
ECCENTRICITY   = .0104384
INCLINATION    = 98.6729
RA_OF_ASC_NODE = 186.7145
ARG_OF_PERICENTER = 219.3318
MEAN_ANOMALY   = 317.9053

EPHEMERIS_TYPE = 0
CLASSIFICATION_TYPE = U
NORAD_CAT_ID   = 87706
ELEMENT_SET_NO = 999
REV_AT_EPOCH   = 58079
BSTAR          = .13839E-2
MEAN_MOTION_DOT = .79E-4
MEAN_MOTION_DDOT = 0

CCSDS_OMM_VERS = 2.0
CREATION_DATE  = 
ORIGINATOR     = 

OBJECT_NAME    = UNKNOWN
OBJECT_ID      = 
CENTER_NAME    = EARTH
REF_FRAME      = TEME
TIME_SYSTEM    = UTC
MEAN_ELEMENT_THEORY = SGP/SGP4

EPOCH          = 2025-12-29T08:59:26.602944
MEAN_MOTION    = 14.98426578
ECCENTRICITY   = .0016949
INCLINATION    = 82.8654
RA_OF_ASC_NODE = 240.6685
ARG_OF_PERICENTER = 5.1163
MEAN_ANOMALY   = 355.0231

EPHEMERIS_TYPE = 0
CLASSIFICATION_TYPE = U
NORAD_CAT_ID   = 87725
ELEMENT_SET_NO = 999
REV_AT_EPOCH   = 63641
BSTAR          = .68996E-2
MEAN_MOTION_DOT = .83484E-3
MEAN_MOTION_DDOT = 0

CCSDS_OMM_VERS = 2.0
CREATION_DATE  = 
ORIGINATOR     = 

OBJECT_NAME    = UNKNOWN
OBJECT_ID      = 
CENTER_NAME    = EARTH
REF_FRAME      = TEME
TIME_SYSTEM    = UTC
MEAN_ELEMENT_THEORY = SGP/SGP4

EPOCH          = 2025-12-24T09:10:37.033248
MEAN_MOTION    = 13.74507897
ECCENTRICITY   = .0029556
INCLINATION    = 82.9441
RA_OF_ASC_NODE = 225.4871
ARG_OF_PERICENTER = 333.7555
MEAN_ANOMALY   = 26.2102

EPHEMERIS_TYPE = 0
CLASSIFICATION_TYPE = U
NORAD_CAT_ID   = 87730
ELEMENT_SET_NO = 999
REV_AT_EPOCH   = 58693
BSTAR          = .94053E-4
MEAN_MOTION_DOT = .104E-5
MEAN_MOTION_DDOT = 0

CCSDS_OMM_VERS = 2.0
CREATION_DATE  = 
ORIGINATOR     = 

OBJECT_NAME    = UNKNOWN
OBJECT_ID      = 
CENTER_NAME    = EARTH
REF_FRAME      = TEME
TIME_SYSTEM    = UTC
MEAN_ELEMENT_THEORY = SGP/SGP4

EPOCH          = 2025-12-28T21:18:41.955840
MEAN_MOTION    = 13.72343284
ECCENTRICITY   = .0133553
INCLINATION    = 99.3733
RA_OF_ASC_NODE = 234.3348
ARG_OF_PERICENTER = 147.3352
MEAN_ANOMALY   = 213.6144

EPHEMERIS_TYPE = 0
CLASSIFICATION_TYPE = U
NORAD_CAT_ID   = 87737
ELEMENT_SET_NO = 999
REV_AT_EPOCH   = 60607
BSTAR          = .83303E-4
MEAN_MOTION_DOT = .38E-6
MEAN_MOTION_DDOT = 0

CCSDS_OMM_VERS = 2.0
CREATION_DATE  = 
ORIGINATOR     = 

OBJECT_NAME    = UNKNOWN
OBJECT_ID      = 
CENTER_NAME    = EARTH
REF_FRAME      = TEME
TIME_SYSTEM    = UTC
MEAN_ELEMENT_THEORY = SGP/SGP4

EPOCH          = 2025-12-28T15:04:58.158624
MEAN_MOTION    = 14.35063655
ECCENTRICITY   = .035952
INCLINATION    = 65.6716
RA_OF_ASC_NODE = 118.7182
ARG_OF_PERICENTER = 68.4053
MEAN_ANOMALY   = 310.3426

EPHEMERIS_TYPE = 0
CLASSIFICATION_TYPE = U
NORAD_CAT_ID   = 87764
ELEMENT_SET_NO = 999
REV_AT_EPOCH   = 62140
BSTAR          = .11976E-2
MEAN_MOTION_DOT = .7049E-4
MEAN_MOTION_DDOT = 0

CCSDS_OMM_VERS = 2.0
CREATION_DATE  = 
ORIGINATOR     = 

OBJECT_NAME    = UNKNOWN
OBJECT_ID      = 
CENTER_NAME    = EARTH
REF_FRAME      = TEME
TIME_SYSTEM    = UTC
MEAN_ELEMENT_THEORY = SGP/SGP4

EPOCH          = 2025-12-28T18:19:23.663712
MEAN_MOTION    = 13.19521890
ECCENTRICITY   = .0119744
INCLINATION    = 100.7425
RA_OF_ASC_NODE = 199.2768
ARG_OF_PERICENTER = 326.0891
MEAN_ANOMALY   = 33.2609

EPHEMERIS_TYPE = 0
CLASSIFICATION_TYPE = U
NORAD_CAT_ID   = 87771
ELEMENT_SET_NO = 999
REV_AT_EPOCH   = 53720
BSTAR          = .37596E-3
MEAN_MOTION_DOT = .108E-5
MEAN_MOTION_DDOT = 0

CCSDS_OMM_VERS = 2.0
CREATION_DATE  = 
ORIGINATOR     = 

OBJECT_NAME    = UNKNOWN
OBJECT_ID      = 
CENTER_NAME    = EARTH
REF_FRAME      = TEME
TIME_SYSTEM    = UTC
MEAN_ELEMENT_THEORY = SGP/SGP4

EPOCH          = 2025-12-29T01:48:31.209408
MEAN_MOTION    = 13.00490848
ECCENTRICITY   = .0037737
INCLINATION    = 102.3452
RA_OF_ASC_NODE = 236.8295
ARG_OF_PERICENTER = 215.4776
MEAN_ANOMALY   = 144.3810

EPHEMERIS_TYPE = 0
CLASSIFICATION_TYPE = U
NORAD_CAT_ID   = 87782
ELEMENT_SET_NO = 999
REV_AT_EPOCH   = 57011
BSTAR          = .10408E-1
MEAN_MOTION_DOT = .3112E-4
MEAN_MOTION_DDOT = 0

CCSDS_OMM_VERS = 2.0
CREATION_DATE  = 
ORIGINATOR     = 

OBJECT_NAME    = UNKNOWN
OBJECT_ID      = 
CENTER_NAME    = EARTH
REF_FRAME      = TEME
TIME_SYSTEM    = UTC
MEAN_ELEMENT_THEORY = SGP/SGP4

EPOCH          = 2025-12-24T02:04:46.188480
MEAN_MOTION    = 13.16590622
ECCENTRICITY   = .0232756
INCLINATION    = 99.6621
RA_OF_ASC_NODE = 111.2786
ARG_OF_PERICENTER = 337.1306
MEAN_ANOMALY   = 21.9576

EPHEMERIS_TYPE = 0
CLASSIFICATION_TYPE = U
NORAD_CAT_ID   = 87843
ELEMENT_SET_NO = 999
REV_AT_EPOCH   = 56565
BSTAR          = .58364E-2
MEAN_MOTION_DOT = .2525E-4
MEAN_MOTION_DDOT = 0

CCSDS_OMM_VERS = 2.0
CREATION_DATE  = 
ORIGINATOR     = 

OBJECT_NAME    = UNKNOWN
OBJECT_ID      = 
CENTER_NAME    = EARTH
REF_FRAME      = TEME
TIME_SYSTEM    = UTC
MEAN_ELEMENT_THEORY = SGP/SGP4

EPOCH          = 2025-12-25T02:33:39.310272
MEAN_MOTION    = 12.88944602
ECCENTRICITY   = .0575891
INCLINATION    = 98.8591
RA_OF_ASC_NODE = 314.1797
ARG_OF_PERICENTER = 225.2315
MEAN_ANOMALY   = 130.0551

EPHEMERIS_TYPE = 0
CLASSIFICATION_TYPE = U
NORAD_CAT_ID   = 87845
ELEMENT_SET_NO = 999
REV_AT_EPOCH   = 56680
BSTAR          = .14796E-2
MEAN_MOTION_DOT = .76E-5
MEAN_MOTION_DDOT = 0

CCSDS_OMM_VERS = 2.0
CREATION_DATE  = 
ORIGINATOR     = 

OBJECT_NAME    = UNKNOWN
OBJECT_ID      = 
CENTER_NAME    = EARTH
REF_FRAME      = TEME
TIME_SYSTEM    = UTC
MEAN_ELEMENT_THEORY = SGP/SGP4

EPOCH          = 2025-12-29T13:58:17.931936
MEAN_MOTION    = 14.40852108
ECCENTRICITY   = .0036139
INCLINATION    = 99.1570
RA_OF_ASC_NODE = 124.2550
ARG_OF_PERICENTER = 216.0869
MEAN_ANOMALY   = 143.7878

EPHEMERIS_TYPE = 0
CLASSIFICATION_TYPE = U
NORAD_CAT_ID   = 87878
ELEMENT_SET_NO = 999
REV_AT_EPOCH   = 61372
BSTAR          = .20173E-2
MEAN_MOTION_DOT = .6471E-4
MEAN_MOTION_DDOT = 0

CCSDS_OMM_VERS = 2.0
CREATION_DATE  = 
ORIGINATOR     = 

OBJECT_NAME    = UNKNOWN
OBJECT_ID      = 
CENTER_NAME    = EARTH
REF_FRAME      = TEME
TIME_SYSTEM    = UTC
MEAN_ELEMENT_THEORY = SGP/SGP4

EPOCH          = 2025-12-21T13:00:48.805056
MEAN_MOTION    = 14.05991137
ECCENTRICITY   = .0154535
INCLINATION    = 98.7350
RA_OF_ASC_NODE = 99.0792
ARG_OF_PERICENTER = 43.8328
MEAN_ANOMALY   = 317.4984

EPHEMERIS_TYPE = 0
CLASSIFICATION_TYPE = U
NORAD_CAT_ID   = 87884
ELEMENT_SET_NO = 999
REV_AT_EPOCH   = 61960
BSTAR          = .31168E-4
MEAN_MOTION_DOT = .15E-6
MEAN_MOTION_DDOT = 0

CCSDS_OMM_VERS = 2.0
CREATION_DATE  = 
ORIGINATOR     = 

OBJECT_NAME    = UNKNOWN
OBJECT_ID      = 
CENTER_NAME    = EARTH
REF_FRAME      = TEME
TIME_SYSTEM    = UTC
MEAN_ELEMENT_THEORY = SGP/SGP4

EPOCH          = 2025-12-28T05:43:13.467648
MEAN_MOTION    = 12.35177287
ECCENTRICITY   = .0884727
INCLINATION    = 28.6179
RA_OF_ASC_NODE = 195.0074
ARG_OF_PERICENTER = 144.6017
MEAN_ANOMALY   = 221.6610

EPHEMERIS_TYPE = 0
CLASSIFICATION_TYPE = U
NORAD_CAT_ID   = 87991
ELEMENT_SET_NO = 999
REV_AT_EPOCH   = 52491
BSTAR          = .6074E-2
MEAN_MOTION_DOT = .3028E-4
MEAN_MOTION_DDOT = 0

