UNKNOWN                 
1 87706U          25362.29714021  .00007900  00000+0  13839-2 0  9993
2 87706  98.6729 186.7145 0104384 219.3318 317.9053 14.64552886580796
UNKNOWN                 
1 87725U          25363.37461346  .00083484  00000+0  68996-2 0  9998
2 87725  82.8654 240.6685 0016949   5.1163 355.0231 14.98426578636413
UNKNOWN                 
1 87730U          25358.38237307  .00000104  00000+0  94053-4 0  9990
2 87730  82.9441 225.4871 0029556 333.7555  26.2102 13.74507897586937
UNKNOWN                 
1 87737U          25362.88798560  .00000038  00000+0  83303-4 0  9992
2 87737  99.3733 234.3348 0133553 147.3352 213.6144 13.72343284606077
UNKNOWN                 
1 87764U          25362.62845091  .00007049  00000+0  11976-2 0  9990
2 87764  65.6716 118.7182 0359520  68.4053 310.3426 14.35063655621403
UNKNOWN                 
1 87771U          25362.76346833  .00000108  00000+0  37596-3 0  9999
2 87771 100.7425 199.2768 0119744 326.0891  33.2609 13.19521890537207
UNKNOWN                 
1 87782U          25363.07536122  .00003112  00000+0  10408-1 0  9997
2 87782 102.3452 236.8295 0037737 215.4776 144.3810 13.00490848570117
UNKNOWN                 
1 87843U          25358.08664570  .00002525  00000+0  58364-2 0  9990
2 87843  99.6621 111.2786 0232756 337.1306  21.9576 13.16590622565651
UNKNOWN                 
1 87845U          25359.10670498  .00000760  00000+0  14796-2 0  9992
2 87845  98.8591 314.1797 0575891 225.2315 130.0551 12.88944602566805
UNKNOWN                 
1 87878U          25363.58215199  .00006471  00000+0  20173-2 0  9999
2 87878  99.1570 124.2550 0036139 216.0869 143.7878 14.40852108613724
UNKNOWN                 
1 87884U          25355.54223154  .00000015  00000+0  31168-4 0  9999
2 87884  98.7350  99.0792 0154535  43.8328 317.4984 14.05991137619604
UNKNOWN                 
1 87991U          25362.23835032  .00003028  00000+0  60740-2 0  9999
2 87991  28.6179 195.0074 0884727 144.6017 221.6610 12.35177287524916
